satname,norad_id,inclination_deg,eccentricity,mean_motion_rev_per_day,perigee_km,apogee_km,l1,l2
STARLINK-1316,45415,53.157,0.0006209,15.38127906,447.40489077909115,455.8861146909867,1 45415U 20019BH  26153.10739456  .00059610  00000+0  15621-2 0  9990,2 45415  53.1570  94.8445 0006209  69.5974 290.5697 15.38127906342956
STARLINK-1286,45417,53.046,0.0001107,15.63411637,377.0628519124284,378.55861874103084,1 45417U 20019BK  26153.11401878  .00058548  00000+0  62439-3 0  9996,2 45417  53.0460  82.4226 0001107 160.9452 199.1603 15.63411637343366
STARLINK-1308,45419,53.0464,0.0007989,15.65211735,367.236693645752,378.02306896870505,1 45419U 20019BM  26153.14704532  .00052863  00000+0  52528-3 0  9996,2 45419  53.0464 101.7401 0007989  30.6165 329.5315 15.65211735342840
STARLINK-1329,45531,53.0422,0.0003658,15.72502234,349.28647923117205,354.21006329562806,1 45531U 20025A   26153.80029213  .00068128  00000+0  50033-3 0  9997,2 45531  53.0422  22.5236 0003658 126.4333 233.7022 15.72502234338790
STARLINK-1338,45532,53.0449,0.0003713,15.67209125,364.38838285035763,369.3972419890606,1 45532U 20025B   26152.91554605  .00056192  00000+0  51546-3 0  9995,2 45532  53.0449  33.3278 0003713  89.0725 271.0716 15.67209125338564
STARLINK-1350,45535,53.0717,0.000148,15.38132643,450.6206745004656,452.6422859706163,1 45535U 20025E   26153.76968700  .00013912  00000+0  37475-3 0  9995,2 45535  53.0717 352.9365 0001480  91.0348 269.0825 15.38132643339247
STARLINK-1362,45538,53.1572,0.0003175,15.36632509,453.9059254010017,458.24565052135677,1 45538U 20025H   26153.92468188 -.00198995  00000+0 -56164-2 0  9993,2 45538  53.1572  63.3162 0003175  69.9995 290.1351 15.36632509338256
STARLINK-1368,45540,53.1595,0.0004873,15.36796714,452.2588859988482,458.91903532010747,1 45540U 20025K   26153.02764482  .00044271  00000+0  12166-2 0  9992,2 45540  53.1595  67.8961 0004873 103.5328 256.6219 15.36796714338104
STARLINK-1371,45542,53.0441,0.0005072,15.61243131,380.6353315859724,387.4949094170088,1 45542U 20025M   26154.00002315  .00107926  00000+0  12388-2 0  9996,2 45542  53.0441  37.4618 0005072 113.4969 151.4310 15.61243131  5901
STARLINK-1372,45543,53.1565,0.0003918,15.37222024,451.65146449955955,457.0053844061613,1 45543U 20025N   26152.01298599  .00056420  00000+0  15242-2 0  9991,2 45543  53.1565  72.1800 0003918  90.2845 269.8608 15.37222024337050
STARLINK-1373,45544,53.0464,0.0003549,15.68943501,359.52902348914813,364.3131167073052,1 45544U 20025P   26152.11320264  .00064407  00000+0  54925-3 0  9994,2 45544  53.0464  42.6137 0003549  63.3115 296.8264 15.68943501338361
STARLINK-1327,45555,53.042,0.0004522,15.66445555,366.03346819713715,372.1356553776177,1 45555U 20025AA  26151.88943556  .00054151  00000+0  51250-3 0  9997,2 45555  53.0420  20.7532 0004522  63.5581 296.5897 15.66445555338646
STARLINK-1356,45564,53.0444,5.84e-05,15.64680282,373.76408625192107,374.5527543570115,1 45564U 20025AK  26154.00002315  .00055222  00000+0  56077-3 0  9995,2 45564  53.0444  23.4536 0000584  78.4459 224.5318 15.64680282  5937
STARLINK-1357,45565,53.0448,0.0005736,15.6881611,358.4196293447394,366.1522425368512,1 45565U 20025AL  26153.73763373  .00059881  00000+0  51371-3 0  9990,2 45565  53.0448 341.6278 0005736 106.6678 253.4968 15.68816110339365
STARLINK-1361,45567,53.0435,6.63e-05,15.61574605,382.65987848866916,383.5564195954321,1 45567U 20025AN  26153.93308556  .00088871  00000+0  10110-2 0  9998,2 45567  53.0435  21.9745 0000663 203.7319 156.3663 15.61574605338810
STARLINK-1366,45569,53.0284,0.0009925,16.1323223,231.424734809847,244.55774937039496,1 45569U 20025AQ  26154.00531699  .00788766  37468-3  65389-3 0  9996,2 45569  53.0284 324.6112 0009925 297.5879  62.4148 16.13232230339603
STARLINK-1376,45570,53.1574,0.0004812,15.37564734,450.0258276158729,456.6004152127216,1 45570U 20025AR  26151.99129366  .00053566  00000+0  14321-2 0  9997,2 45570  53.1574  48.6995 0004812  89.2599 270.8956 15.37564734338282
STARLINK-1320,45572,53.0427,0.0007398,15.85170384,310.892811854731,320.7972276511573,1 45572U 20025AT  26154.00002315  .00121234  00000+0  49684-3 0  9997,2 45572  53.0427 279.9606 0007398 316.7378 285.3640 15.85170384  5800
STARLINK-1321,45573,53.0429,0.000293,15.62551957,378.3082671053153,382.26870443997905,1 45573U 20025AU  26153.75374565  .00108180  00000+0  11807-2 0  9998,2 45573  53.0429   6.7842 0002930 127.2100 232.9181 15.62551957338706
STARLINK-1331,45578,53.0466,0.0003667,15.62364769,378.3497834973714,383.3068086455114,1 45578U 20025AZ  26154.00002315  .00144183  00000+0  15761-2 0  9999,2 45578  53.0466  12.4736 0003667  93.9541  84.4270 15.62364769  5909
STARLINK-1333,45580,53.1581,0.0002788,15.34577654,460.2681869611715,464.08234508070564,1 45580U 20025BB  26152.09054455  .00054555  00000+0  16049-2 0  9994,2 45580  53.1581  49.5992 0002788  95.6963 264.4358 15.34577654338281
STARLINK-1335,45581,53.155,0.0003983,15.36073973,455.0096318428932,460.4550853739611,1 45581U 20025BC  26152.12760136  .00056647  00000+0  15878-2 0  9992,2 45581  53.1550  46.2276 0003983 111.2418 248.9011 15.36073973338320
STARLINK-1337,45582,53.0458,0.000544,15.73561404,345.06857737559585,352.3874064868169,1 45582U 20025BD  26153.92744903  .00072964  00000+0  51138-3 0  9996,2 45582  53.0458   2.5872 0005440  96.8003 263.3635 15.73561404339070
STARLINK-1347,45586,53.04,0.0002925,15.67943705,362.813649941736,366.7582598703557,1 45586U 20025BH  26153.77191091  .00060096  00000+0  53454-3 0  9993,2 45586  53.0400 333.6346 0002925 120.9447 239.1856 15.67943705339461
STARLINK-1364,45589,53.0433,9.87e-05,15.68730151,361.86685853132985,363.1974666240221,1 45589U 20025BL  26153.78205974  .00052261  00000+0  45128-3 0  9997,2 45589  53.0433  10.3084 0000987 132.7390 227.3709 15.68730151338951
STARLINK-1365,45590,53.0469,0.0003728,15.57919136,391.1557803483083,396.2048473375098,1 45590U 20025BM  26152.13943931  .00094588  00000+0  12350-2 0  9997,2 45590  53.0469  52.0460 0003728  77.7769 282.3659 15.57919136338244
STARLINK-1443,45660,53.1352,0.000349,15.31926679,467.6743379703348,472.4543825197861,1 45660U 20035D   26152.92255189  .00055719  00000+0  17811-2 0  9994,2 45660  53.1352  34.3239 0003490  83.5309 276.6090 15.31926679331646
STARLINK-1446,45663,53.0233,0.0003077,15.47254042,422.669805196937,426.8563098923505,1 45663U 20035G   26153.68614750  .00038168  00000+0  74202-3 0  9991,2 45663  53.0233 314.3822 0003077 164.1717 195.9386 15.47254042332811
STARLINK-1448,45665,53.0443,0.0005399,15.67606652,362.11143036279555,369.39348219768726,1 45665U 20035J   26153.93368326  .00056989  00000+0  51411-3 0  9994,2 45665  53.0443 356.8803 0005399  87.7082 272.4551 15.67606652332231
STARLINK-1451,45668,53.0519,0.0002706,15.13854132,522.5916687282797,526.3273539602187,1 45668U 20035M   26152.02955725  .00024612  00000+0  13573-2 0  9995,2 45668  53.0519  48.6221 0002706  94.0849 266.0453 15.13854132331350
STARLINK-1452,45669,53.0266,0.0001894,15.57865101,392.5542893709098,395.1195130846954,1 45669U 20035N   26153.78457236  .00090268  00000+0  11821-2 0  9998,2 45669  53.0266 332.3914 0001894 274.2838  85.7957 15.57865101332575
STARLINK-1453,45670,53.0407,0.0001297,15.68020629,363.6908949295894,365.43995193822866,1 45670U 20035P   26153.96665305  .00065191  00000+0  57732-3 0  9997,2 45670  53.0407 317.0257 0001297 228.7884 131.3020 15.68020629332698
STARLINK-1454,45671,53.0437,0.0002282,15.65846246,369.2659556357812,372.3461732503929,1 45671U 20035Q   26151.89125995  .00062241  00000+0  60218-3 0  9990,2 45671  53.0437   8.0925 0002282  55.8899 304.2332 15.65846246331897
STARLINK-1456,45673,53.0426,0.0004845,15.65019649,369.91123560877895,376.453263961821,1 45673U 20035S   26153.77008965  .00048587  00000+0  48764-3 0  9997,2 45673  53.0426 353.3987 0004845 140.6506 219.4861 15.65019649332283
STARLINK-1458,45675,53.0468,0.0002715,15.56070467,397.20269363126135,400.882702207231,1 45675U 20035U   26154.00002315  .00139378  00000+0  19355-2 0  9991,2 45675  53.0468   6.5615 0002715  77.2102 159.3157 15.56070467  5896
STARLINK-1460,45676,53.158,0.0003804,15.34487347,459.84148195553007,465.04579570555234,1 45676U 20035V   26152.91208806  .00058578  00000+0  17263-2 0  9991,2 45676  53.1580  32.9387 0003804 139.8538 220.2746 15.34487347331620
STARLINK-1392,45677,53.1531,0.0002873,15.37596719,451.2557343916151,455.1810311945683,1 45677U 20035W   26151.96769812  .00056865  00000+0  15177-2 0  9994,2 45677  53.1531  36.1503 0002873 134.7965 225.3273 15.37596719331534
STARLINK-1394,45679,53.0411,0.0004659,15.64731189,370.8661404185332,377.157792825632,1 45679U 20035Y   26153.77219086  .00045741  00000+0  46486-3 0  9999,2 45679  53.0411 343.6609 0004659 145.5095 214.6222 15.64731189332418
STARLINK-1402,45685,53.0422,0.0005727,15.57271649,391.67795987757927,399.436549276772,1 45685U 20035AE  26153.75465155  .00043002  00000+0  58238-3 0  9990,2 45685  53.0422 334.2898 0005727 168.0260 192.0888 15.57271649332558
STARLINK-1404,45686,53.1577,0.0004053,15.43832304,432.0499902026295,437.5725660768894,1 45686U 20035AF  26152.96004631  .00078653  00000+0  16999-2 0  9998,2 45686  53.1577  13.3880 0004053 151.7378 208.3849 15.43832304331943
STARLINK-1413,45689,53.1582,0.0002114,15.34534653,460.8569833528345,463.7491214069796,1 45689U 20035AJ  26153.79755494  .00045950  00000+0  13569-2 0  9997,2 45689  53.1582  13.4402 0002114 161.7196 198.3883 15.34534653331939
STARLINK-1417,45693,53.0509,0.000566,15.16553485,512.3641065804395,520.1685711600403,1 45693U 20035AN  26153.78787422  .00026958  00000+0  13754-2 0  9990,2 45693  53.0509  27.3923 0005660 115.6809 244.4770 15.16553485331798
STARLINK-1420,45695,53.046,0.0004291,15.67574337,362.9512951842098,368.7389806549727,1 45695U 20035AQ  26153.73165713  .00056517  00000+0  51073-3 0  9991,2 45695  53.0460 327.1444 0004291 114.9406 245.2056 15.67574337332645
